NORAD_CAT_ID,OBJECT_NAME,OBJECT_TYPE,EPOCH,MEAN_MOTION,ECCENTRICITY,INCLINATION,RA_OF_ASC_NODE,ARG_OF_PERICENTER,MEAN_ANOMALY,BSTAR,MEAN_MOTION_DOT,MEAN_MOTION_DDOT,TLE_LINE0,TLE_LINE1,TLE_LINE2,SEMIMAJOR_AXIS,PERIOD,APOGEE,PERIGEE,DECAYED
53539.0,STARLINK-4123,PAYLOAD,2023-12-02 18:57:08,15.08851773,0.0001666,53.2146,190.7105,92.7391,267.3792,0.000126,1.718e-05,0.0,0 STARLINK-4123,1 53539U 22101N   23336.78967617  .00001718  00000-0  12600-3 0  9998,2 53539  53.2146 190.7105 0001666  92.7391 267.3792 15.08851773 71189,6917.844,95.437,540.862,538.557,0.0
53539.0,STARLINK-4123,PAYLOAD,2023-12-02 22:07:54,15.08847367,0.0001753,53.2167,190.1139,81.3156,278.8034,7.2543e-05,8.67e-06,0.0,0 STARLINK-4123,1 53539U 22101N   23336.92215817  .00000867  00000-0  72543-4 0  9999,2 53539  53.2167 190.1139 0001753  81.3156 278.8034 15.08847367 71206,6917.858,95.437,540.936,538.51,0.0
53539.0,STARLINK-4123,PAYLOAD,2023-12-03 02:54:03,15.08843752,0.000157,53.2147,189.2223,100.8198,259.2971,-1.7526e-05,-5.67e-06,0.0,0 STARLINK-4123,1 53539U 22101N   23337.12087720 -.00000567  00000-0 -17526-4 0  9991,2 53539  53.2147 189.2223 0001570 100.8198 259.2971 15.08843752 71237,6917.869,95.437,540.82,538.648,0.0
53539.0,STARLINK-4123,PAYLOAD,2023-12-03 14:01:47,15.08823809,0.0001581,53.2157,187.1414,111.3352,248.7809,-0.00092033,-0.00014899,0.0,0 STARLINK-4123,1 53539U 22101N   23337.58457444 -.00014899  00000-0 -92033-3 0  9993,2 53539  53.2157 187.1414 0001581 111.3352 248.7809 15.08823809 71300,6917.93,95.439,540.889,538.701,0.0
53539.0,STARLINK-4123,PAYLOAD,2023-12-03 20:23:20,15.08820999,0.0001503,53.2151,185.9539,103.3781,256.7379,-0.00078152,-0.00012698,0.0,0 STARLINK-4123,1 53539U 22101N   23337.84953846 -.00012698  00000-0 -78152-3 0  9990,2 53539  53.2151 185.9539 0001503 103.3781 256.7379 15.08820999 71341,6917.938,95.439,540.843,538.764,0.0
53539.0,STARLINK-4123,PAYLOAD,2023-12-03 23:34:06,15.08821446,0.0001934,53.2152,185.3574,129.6877,230.4286,-0.00073942,-0.00012031,0.0,0 STARLINK-4123,1 53539U 22101N   23337.98201939 -.00012031  00000-0 -73942-3 0  9997,2 53539  53.2152 185.3574 0001934 129.6877 230.4286 15.08821446 71366,6917.937,95.439,541.14,538.464,0.0
53539.0,STARLINK-4123,PAYLOAD,2023-12-05 13:43:23,15.08824401,0.000173,53.2153,178.2235,82.2879,277.8309,0.00039591,6.016e-05,0.0,0 STARLINK-4123,1 53539U 22101N   23339.57179715  .00006016  00000-0  39591-3 0  9996,2 53539  53.2153 178.2235 0001730  82.2879 277.8309 15.08824401 71604,6917.928,95.439,540.99,538.596,0.0
53539.0,STARLINK-4123,PAYLOAD,2023-12-06 13:34:08,15.08847572,0.0001366,53.2159,173.7616,89.067,271.0479,0.00013054,1.791e-05,0.0,0 STARLINK-4123,1 53539U 22101N   23340.56537654  .00001791  00000-0  13054-3 0  9998,2 53539  53.2159 173.7616 0001366  89.0670 271.0479 15.08847572 71756,6917.857,95.437,540.667,538.777,0.0
53539.0,STARLINK-4123,PAYLOAD,2023-12-07 13:24:55,15.08848624,0.0001455,53.2153,169.3011,84.0591,276.0566,9.7907e-05,1.271e-05,0.0,0 STARLINK-4123,1 53539U 22101N   23341.55898003  .00001271  00000-0  97907-4 0  9999,2 53539  53.2153 169.3011 0001455  84.0591 276.0566 15.08848624 71904,6917.854,95.437,540.726,538.712,0.0
53539.0,STARLINK-4123,PAYLOAD,2023-12-08 11:40:19,15.08841765,0.0002379,53.2135,165.1364,104.4433,255.6823,-6.1679e-05,-1.27e-05,0.0,0 STARLINK-4123,1 53539U 22101N   23342.48633783 -.00001270  00000-0 -61679-4 0  9992,2 53539  53.2135 165.1364 0002379 104.4433 255.6823 15.08841765 72041,6917.875,95.437,541.386,538.094,0.0
53539.0,STARLINK-4123,PAYLOAD,2023-12-08 21:12:38,15.08842376,0.0001114,53.22,163.3589,60.4145,299.6958,-6.0485e-05,-1.25e-05,0.0,0 STARLINK-4123,1 53539U 22101N   23342.88377798 -.00001250  00000-0 -60485-4 0  9999,2 53539  53.2200 163.3589 0001114  60.4145 299.6958 15.08842376 72103,6917.873,95.437,540.509,538.967,0.0
53539.0,STARLINK-4123,PAYLOAD,2023-12-09 11:31:07,15.08838546,0.0001631,53.2144,160.6762,87.5054,272.6125,-4.2666e-05,-9.67e-06,0.0,0 STARLINK-4123,1 53539U 22101N   23343.47994544 -.00000967  00000-0 -42666-4 0  9994,2 53539  53.2144 160.6762 0001631  87.5054 272.6125 15.08838546 72196,6917.885,95.438,540.878,538.622,0.0
53539.0,STARLINK-4123,PAYLOAD,2023-12-09 21:03:26,15.08829974,0.0001525,53.217,158.8934,85.5864,274.5302,-3.9584e-06,-3.51e-06,0.0,0 STARLINK-4123,1 53539U 22101N   23343.87739247 -.00000351  00000-0 -39584-5 0  9998,2 53539  53.2170 158.8934 0001525  85.5864 274.5302 15.08829974 72254,6917.911,95.438,540.831,538.721,0.0
53539.0,STARLINK-4123,PAYLOAD,2023-12-10 11:21:54,15.08832167,0.0001512,53.2192,156.2185,88.3222,271.7943,4.3927e-05,4.11e-06,0.0,0 STARLINK-4123,1 53539U 22101N   23344.47355324  .00000411  00000-0  43927-4 0  9995,2 53539  53.2192 156.2185 0001512  88.3222 271.7943 15.08832167 72341,6917.904,95.438,540.815,538.723,0.0
53539.0,STARLINK-4123,PAYLOAD,2023-12-10 19:18:50,15.08833476,0.0001512,53.2172,154.7306,81.8639,278.2525,4.8246e-05,4.8e-06,0.0,0 STARLINK-4123,1 53539U 22101N   23344.80475405  .00000480  00000-0  48246-4 0  9990,2 53539  53.2172 154.7306 0001512  81.8639 278.2525 15.08833476 72394,6917.9,95.438,540.811,538.719,0.0
53539.0,STARLINK-4123,PAYLOAD,2023-12-11 17:34:14,15.08835882,0.0001465,53.2172,150.567,83.8654,276.2505,0.00011745,1.582e-05,0.0,0 STARLINK-4123,1 53539U 22101N   23345.73211481  .00001582  00000-0  11745-3 0  9992,2 53539  53.2172 150.5670 0001465  83.8654 276.2505 15.08835882 72533,6917.893,95.438,540.771,538.745,0.0
53539.0,STARLINK-4123,PAYLOAD,2023-12-12 14:14:15,15.08844468,0.0001393,53.2171,146.7003,90.0306,270.0846,0.00011774,1.587e-05,0.0,0 STARLINK-4123,1 53539U 22101N   23346.59322995  .00001587  00000-0  11774-3 0  9997,2 53539  53.2171 146.7003 0001393  90.0306 270.0846 15.08844468 72667,6917.867,95.437,540.695,538.768,0.0
53539.0,STARLINK-4123,PAYLOAD,2023-12-12 17:25:01,15.08845618,0.0001469,53.2176,146.1063,83.4161,276.6998,0.00012653,1.727e-05,0.0,0 STARLINK-4123,1 53539U 22101N   23346.72570951  .00001727  00000-0  12653-3 0  9992,2 53539  53.2176 146.1063 0001469  83.4161 276.6998 15.08845618 72681,6917.863,95.437,540.744,538.712,0.0
53539.0,STARLINK-4123,PAYLOAD,2023-12-13 14:05:01,15.08852714,0.0001394,53.2174,142.2397,97.08,263.0351,0.00010159,1.33e-05,0.0,0 STARLINK-4123,1 53539U 22101N   23347.58682077  .00001330  00000-0  10159-3 0  9999,2 53539  53.2174 142.2397 0001394  97.0800 263.0351 15.08852714 72817,6917.842,95.437,540.671,538.742,0.0
53539.0,STARLINK-4123,PAYLOAD,2023-12-13 17:15:47,15.08856074,0.0001352,53.2173,141.6453,94.7759,265.3388,9.7988e-05,1.273e-05,0.0,0 STARLINK-4123,1 53539U 22101N   23347.71929771  .00001273  00000-0  97988-4 0  9991,2 53539  53.2173 141.6453 0001352  94.7759 265.3388 15.08856074 72833,6917.831,95.437,540.632,538.761,0.0
53539.0,STARLINK-4123,PAYLOAD,2023-12-14 13:55:48,15.08847359,0.0001823,53.2171,137.7789,125.8843,234.2319,-5.7492e-05,-1.203e-05,0.0,0 STARLINK-4123,1 53539U 22101N   23348.58042499 -.00001203  00000-0 -57492-4 0  9991,2 53539  53.2171 137.7789 0001823 125.8843 234.2319 15.08847359 72961,6917.858,95.437,540.984,538.462,0.0
53539.0,STARLINK-4123,PAYLOAD,2023-12-14 17:06:36,15.08828972,0.0001351,53.2173,137.1841,85.0913,275.0233,-0.00014651,-2.618e-05,0.0,0 STARLINK-4123,1 53539U 22101N   23348.71291869 -.00002618  00000-0 -14651-3 0  9993,2 53539  53.2173 137.1841 0001351  85.0913 275.0233 15.08828972 72987,6917.914,95.438,540.714,538.844,0.0
53539.0,STARLINK-4123,PAYLOAD,2023-12-15 13:46:36,15.08834625,0.0001272,53.2167,133.3191,82.3353,277.7783,-0.00011508,-2.119e-05,0.0,0 STARLINK-4123,1 53539U 22101N   23349.57403856 -.00002119  00000-0 -11508-3 0  9993,2 53539  53.2167 133.3191 0001272  82.3353 277.7783 15.08834625 73113,6917.897,95.438,540.642,538.882,0.0
53539.0,STARLINK-4123,PAYLOAD,2023-12-15 16:57:22,15.08838609,0.0001319,53.217,132.7259,93.0488,267.0655,-7.718e-05,-1.516e-05,0.0,0 STARLINK-4123,1 53539U 22101N   23349.70651514 -.00001516  00000-0 -77180-4 0  9993,2 53539  53.2170 132.7259 0001319  93.0488 267.0655 15.08838609 73133,6917.885,95.438,540.662,538.837,0.0
53539.0,STARLINK-4123,PAYLOAD,2023-12-16 13:37:23,15.08838475,0.000134,53.2173,128.8616,97.057,263.0575,0.00029406,4.395e-05,0.0,0 STARLINK-4123,1 53539U 22101N   23350.56763004  .00004395  00000-0  29406-3 0  9990,2 53539  53.2173 128.8616 0001340  97.0570 263.0575 15.08838475 73261,6917.885,95.438,540.677,538.823,0.0
53539.0,STARLINK-4123,PAYLOAD,2023-12-16 16:48:09,15.08847802,0.0001375,53.2165,128.2662,92.5807,267.5342,0.00047495,7.281e-05,0.0,0 STARLINK-4123,1 53539U 22101N   23350.70011119  .00007281  00000-0  47495-3 0  9994,2 53539  53.2165 128.2662 0001375  92.5807 267.5342 15.08847802 73285,6917.857,95.437,540.673,538.77,0.0
53539.0,STARLINK-4123,PAYLOAD,2023-12-17 15:03:33,15.08847636,0.0001722,53.2168,124.1047,66.4295,293.6878,0.00017502,2.499e-05,0.0,0 STARLINK-4123,1 53539U 22101N   23351.62747149  .00002499  00000-0  17502-3 0  9997,2 53539  53.2168 124.1047 0001722  66.4295 293.6878 15.08847636 73422,6917.857,95.437,540.913,538.531,0.0
53539.0,STARLINK-4123,PAYLOAD,2023-12-17 16:38:56,15.08848618,0.0001704,53.2175,123.807,73.0559,287.062,0.00021193,3.087e-05,0.0,0 STARLINK-4123,1 53539U 22101N   23351.69371094  .00003087  00000-0  21193-3 0  9991,2 53539  53.2175 123.8070 0001704  73.0559 287.0620 15.08848618 73433,6917.854,95.437,540.898,538.54,0.0
53539.0,STARLINK-4123,PAYLOAD,2023-12-18 14:54:19,15.08856226,0.0001768,53.2173,119.639,69.8351,290.2831,0.00011646,1.567e-05,0.0,0 STARLINK-4123,1 53539U 22101N   23352.62106131  .00001567  00000-0  11646-3 0  9996,2 53539  53.2173 119.6390 0001768  69.8351 290.2831 15.08856226 73571,6917.831,95.437,540.919,538.473,0.0
53539.0,STARLINK-4123,PAYLOAD,2023-12-19 14:45:07,15.08842673,0.0001623,53.2172,115.1776,82.6177,277.5,2.8631e-05,1.68e-06,0.0,0 STARLINK-4123,1 53539U 22101N   23353.61466464  .00000168  00000-0  28631-4 0  9993,2 53539  53.2172 115.1776 0001623  82.6177 277.5000 15.08842673 73722,6917.872,95.437,540.86,538.614,0.0
